GSAT0221 (GALILEO 25)
1 43564U 18060A   25331.27959316 -.00000056  00000+0  00000+0 0  9993
2 43564  57.2311 347.2356 0006566 278.9073  81.0612  1.70475843 45727